[{"OBJECT_NAME":"STARLINK-33979","OBJECT_ID":"2025-094D","EPOCH":"2026-03-09T21:38:06.091296","MEAN_MOTION":14.96695037,"ECCENTRICITY":0.00064257,"INCLINATION":70.0023,"RA_OF_ASC_NODE":233.9743,"ARG_OF_PERICENTER":205.8045,"MEAN_ANOMALY":154.2794,"EPHEMERIS_TYPE":0,"CLASSIFICATION_TYPE":"U","NORAD_CAT_ID":63867,"ELEMENT_SET_NO":999,"REV_AT_EPOCH":4723,"BSTAR":-0.06422202,"MEAN_MOTION_DOT":-0.00685414,"MEAN_MOTION_DDOT":0},{"OBJECT_NAME":"LEMUR-2 FIKRETDENGIZ","OBJECT_ID":"2026-004A","EPOCH":"2026-03-09T22:36:00.737280","MEAN_MOTION":14.87429813,"ECCENTRICITY":0.00106959,"INCLINATION":97.8024,"RA_OF_ASC_NODE":69.0919,"ARG_OF_PERICENTER":104.3025,"MEAN_ANOMALY":255.938,"EPHEMERIS_TYPE":0,"CLASSIFICATION_TYPE":"U","NORAD_CAT_ID":67363,"ELEMENT_SET_NO":999,"REV_AT_EPOCH":852,"BSTAR":0.00076976937,"MEAN_MOTION_DOT":6.923e-5,"MEAN_MOTION_DDOT":0}]
